{
  "type": "FeatureCollection",
  "features": [
    {
      "type": "Feature",
      "properties": {
        "norad_id": 67132,
        "name": "CZ-4B R/B",
        "group": "last-30-days",
        "lat": 24.956787326817555,
        "lon": -108.29813816833084,
        "alt_km": 476.46306652542444,
        "timestamp": "2025-12-19T18:58:40.331240+00:00",
        "meta_object_name": "CZ-4B R/B",
        "meta_object_id": "2025-300B",
        "meta_epoch": "2025-12-18T16:13:04.609056",
        "meta_mean_motion": 15.63831828,
        "meta_eccentricity": 0.01741973,
        "meta_inclination": 97.5563,
        "meta_ra_of_asc_node": 66.966,
        "meta_arg_of_pericenter": 9.3582,
        "meta_mean_anomaly": 351.0851,
        "meta_ephemeris_type": 0,
        "meta_classification_type": "U",
        "meta_norad_cat_id": 67132,
        "meta_element_set_no": 999,
        "meta_rev_at_epoch": 40,
        "meta_bstar": 0.00019566238,
        "meta_mean_motion_dot": 0.00040543,
        "meta_mean_motion_ddot": 2.652968e-06,
        "tle_line1": "1 67132U 25300B   25352.67574779  .00040543  26530-5  19566-3 0  9995",
        "tle_line2": "2 67132  97.5563  66.9660 0174197   9.3582 351.0851 15.63831828   407"
      },
      "geometry": {
        "type": "Point",
        "coordinates": [
          -108.29813816833084,
          24.956787326817555
        ]
      }
    },
    {
      "type": "Feature",
      "properties": {
        "norad_id": 67160,
        "name": "GALILEO A",
        "group": "last-30-days",
        "lat": -42.4213397148608,
        "lon": 66.06495401164098,
        "alt_km": 22939.688700200702,
        "timestamp": "2025-12-19T18:58:40.331254+00:00",
        "meta_object_name": "GALILEO A",
        "meta_object_id": "2025-302A",
        "meta_epoch": "2025-12-18T03:30:19.276416",
        "meta_mean_motion": 1.72903353,
        "meta_eccentricity": 0.00081342,
        "meta_inclination": 54.2386,
        "meta_ra_of_asc_node": 107.2478,
        "meta_arg_of_pericenter": 237.4124,
        "meta_mean_anomaly": 122.4681,
        "meta_ephemeris_type": 0,
        "meta_classification_type": "U",
        "meta_norad_cat_id": 67160,
        "meta_element_set_no": 999,
        "meta_rev_at_epoch": 2,
        "meta_bstar": 0,
        "meta_mean_motion_dot": -7e-08,
        "meta_mean_motion_ddot": 0,
        "tle_line1": "1 67160U 25302A   25352.14605644 -.00000007  00000+0  00000+0 0  9995",
        "tle_line2": "2 67160  54.2386 107.2478 0008134 237.4124 122.4681  1.72903353    27"
      },
      "geometry": {
        "type": "Point",
        "coordinates": [
          66.06495401164098,
          -42.4213397148608
        ]
      }
    },
    {
      "type": "Feature",
      "properties": {
        "norad_id": 67161,
        "name": "GALILEO B",
        "group": "last-30-days",
        "lat": -42.07004939479654,
        "lon": 66.63217953592176,
        "alt_km": 22932.928038904018,
        "timestamp": "2025-12-19T18:58:40.331265+00:00",
        "meta_object_name": "GALILEO B",
        "meta_object_id": "2025-302B",
        "meta_epoch": "2025-12-18T17:22:24.246336",
        "meta_mean_motion": 1.72971576,
        "meta_eccentricity": 0.00048165,
        "meta_inclination": 54.2288,
        "meta_ra_of_asc_node": 107.2066,
        "meta_arg_of_pericenter": 251.7259,
        "meta_mean_anomaly": 108.1814,
        "meta_ephemeris_type": 0,
        "meta_classification_type": "U",
        "meta_norad_cat_id": 67161,
        "meta_element_set_no": 999,
        "meta_rev_at_epoch": 4,
        "meta_bstar": 0,
        "meta_mean_motion_dot": -6e-08,
        "meta_mean_motion_ddot": 0,
        "tle_line1": "1 67161U 25302B   25352.72389174 -.00000006  00000+0  00000+0 0  9996",
        "tle_line2": "2 67161  54.2288 107.2066 0004816 251.7259 108.1814  1.72971576    46"
      },
      "geometry": {
        "type": "Point",
        "coordinates": [
          66.63217953592176,
          -42.07004939479654
        ]
      }
    },
    {
      "type": "Feature",
      "properties": {
        "norad_id": 67162,
        "name": "ARIANE 6 R/B",
        "group": "last-30-days",
        "lat": -41.25633080778831,
        "lon": 68.04846314629557,
        "alt_km": 22924.819183818454,
        "timestamp": "2025-12-19T18:58:40.331276+00:00",
        "meta_object_name": "ARIANE 6 R/B",
        "meta_object_id": "2025-302C",
        "meta_epoch": "2025-12-18T17:20:48.348384",
        "meta_mean_motion": 1.73130153,
        "meta_eccentricity": 4.788e-05,
        "meta_inclination": 54.2367,
        "meta_ra_of_asc_node": 107.242,
        "meta_arg_of_pericenter": 146.0337,
        "meta_mean_anomaly": 213.929,
        "meta_ephemeris_type": 0,
        "meta_classification_type": "U",
        "meta_norad_cat_id": 67162,
        "meta_element_set_no": 999,
        "meta_rev_at_epoch": 7,
        "meta_bstar": 0,
        "meta_mean_motion_dot": -6e-08,
        "meta_mean_motion_ddot": 0,
        "tle_line1": "1 67162U 25302C   25352.72278181 -.00000006  00000+0  00000+0 0  9992",
        "tle_line2": "2 67162  54.2367 107.2420 0000478 146.0337 213.9290  1.73130153    77"
      },
      "geometry": {
        "type": "Point",
        "coordinates": [
          68.04846314629557,
          -41.25633080778831
        ]
      }
    },
    {
      "type": "Feature",
      "properties": {
        "norad_id": 67219,
        "name": "DISKSAT A",
        "group": "last-30-days",
        "lat": 25.97384496200622,
        "lon": -17.663678946245312,
        "alt_km": 546.1498014493291,
        "timestamp": "2025-12-19T18:58:40.331289+00:00",
        "meta_object_name": "DISKSAT A",
        "meta_object_id": "2025-305A",
        "meta_epoch": "2025-12-18T06:11:23.597664",
        "meta_mean_motion": 15.05868419,
        "meta_eccentricity": 0.00043552,
        "meta_inclination": 45.0103,
        "meta_ra_of_asc_node": 321.2665,
        "meta_arg_of_pericenter": 276.2808,
        "meta_mean_anomaly": 83.7571,
        "meta_ephemeris_type": 0,
        "meta_classification_type": "U",
        "meta_norad_cat_id": 67219,
        "meta_element_set_no": 999,
        "meta_rev_at_epoch": 1,
        "meta_bstar": 6.4032814e-05,
        "meta_mean_motion_dot": 7.05e-06,
        "meta_mean_motion_ddot": 0,
        "tle_line1": "1 67219U 25305A   25352.25791201  .00000705  00000+0  64033-4 0  9995",
        "tle_line2": "2 67219  45.0103 321.2665 0004355 276.2808  83.7571 15.05868419    14"
      },
      "geometry": {
        "type": "Point",
        "coordinates": [
          -17.663678946245312,
          25.97384496200622
        ]
      }
    },
    {
      "type": "Feature",
      "properties": {
        "norad_id": 67220,
        "name": "DISKSAT B",
        "group": "last-30-days",
        "lat": 24.40652458042754,
        "lon": -19.821634189049053,
        "alt_km": 547.0289177153772,
        "timestamp": "2025-12-19T18:58:40.331299+00:00",
        "meta_object_name": "DISKSAT B",
        "meta_object_id": "2025-305B",
        "meta_epoch": "2025-12-18T06:11:23.538912",
        "meta_mean_motion": 15.05411903,
        "meta_eccentricity": 0.0003917,
        "meta_inclination": 45.0065,
        "meta_ra_of_asc_node": 321.27,
        "meta_arg_of_pericenter": 288.0087,
        "meta_mean_anomaly": 72.0361,
        "meta_ephemeris_type": 0,
        "meta_classification_type": "U",
        "meta_norad_cat_id": 67220,
        "meta_element_set_no": 999,
        "meta_rev_at_epoch": 1,
        "meta_bstar": 0.00011832,
        "meta_mean_motion_dot": 1.486e-05,
        "meta_mean_motion_ddot": 0,
        "tle_line1": "1 67220U 25305B   25352.25791133  .00001486  00000+0  11832-3 0  9996",
        "tle_line2": "2 67220  45.0065 321.2700 0003917 288.0087  72.0361 15.05411903    16"
      },
      "geometry": {
        "type": "Point",
        "coordinates": [
          -19.821634189049053,
          24.40652458042754
        ]
      }
    },
    {
      "type": "Feature",
      "properties": {
        "norad_id": 67221,
        "name": "DISKSAT C",
        "group": "last-30-days",
        "lat": 44.2675446541067,
        "lon": 55.79042216002799,
        "alt_km": 542.384039497726,
        "timestamp": "2025-12-19T18:58:40.331311+00:00",
        "meta_object_name": "DISKSAT C",
        "meta_object_id": "2025-305C",
        "meta_epoch": "2025-12-18T06:11:31.580160",
        "meta_mean_motion": 15.16973586,
        "meta_eccentricity": 0.00625938,
        "meta_inclination": 45.0151,
        "meta_ra_of_asc_node": 321.1654,
        "meta_arg_of_pericenter": 307.7869,
        "meta_mean_anomaly": 51.7353,
        "meta_ephemeris_type": 0,
        "meta_classification_type": "U",
        "meta_norad_cat_id": 67221,
        "meta_element_set_no": 999,
        "meta_rev_at_epoch": 1,
        "meta_bstar": 0.00014323237,
        "meta_mean_motion_dot": 2.734e-05,
        "meta_mean_motion_ddot": 0,
        "tle_line1": "1 67221U 25305C   25352.25800440  .00002734  00000+0  14323-3 0  9994",
        "tle_line2": "2 67221  45.0151 321.1654 0062593 307.7869  51.7353 15.16973586    19"
      },
      "geometry": {
        "type": "Point",
        "coordinates": [
          55.79042216002799,
          44.2675446541067
        ]
      }
    }
  ]
}